[{"col1":"1 13601U 23001EAE 25071.95837343  .00030938  00000+0  12818-2 0  9996"},{"col1":"2 13601 070.0000 000.0000 0000001 061.4549 138.4933 02.07082163520290"},{"col1":"500"},{"col1":"3026.17356"},{"col1":"-3526.17356"}]
